{
  "type": "FeatureCollection",
  "features": [
    {
      "type": "Feature",
      "properties": {
        "restaurant_name": "Spruce Goose Café",
        "type": "on-airport",
        "region": "PNW",
        "source": "Substack review",
        "website": "https://sprucegoosecafe.com",
        "substack_post": "https://airportrestaurants.substack.com/p/spruce-goose",
        "notes": "A legendary fly-in destination since the 1960s. Aviation-themed décor and homemade pies — marionberry and rhubarb are the ones to get. Named a Top 10 Airport Restaurant by AOPA. Watch planes taxi past while you eat. Wed–Sun 8AM–4PM.",
        "airport_ident": "0S9",
        "airport_name": "Jefferson County Intl",
        "city": "Port Townsend",
        "state": "WA",
        "iso_region": "US-WA",
        "slug": "spruce-goose-café-0s9",
        "airnav_url": "https://www.airnav.com/airport/0S9",
        "status": "",
        "status_date": "",
        "status_note": ""
      },
      "geometry": {
        "type": "Point",
        "coordinates": [
          -122.810997,
          48.053799
        ]
      }
    },
    {
      "type": "Feature",
      "properties": {
        "restaurant_name": "Amelia's Hangar Restaurant and Lounge",
        "type": "on-airport",
        "region": "PNW",
        "source": "Substack review",
        "website": "https://www.ameliashangarrestaurant.com",
        "substack_post": "https://airportrestaurants.substack.com/p/amelias-hangar-restaurant-and-lounge-d29",
        "notes": "Amelia Earhart-themed restaurant inside a plane hangar at Bremerton National. American classics with generous portions. Sunday brunch buffet draws pilots and locals alike. Tue–Thu 6AM–8PM · Fri–Sat 6AM–9PM · Sun 6AM–8PM · Closed Mon.",
        "airport_ident": "KPWT",
        "airport_name": "Bremerton National Airport",
        "city": "Bremerton",
        "state": "WA",
        "iso_region": "US-WA",
        "slug": "amelias-hangar-restaurant-and-lounge-kpwt",
        "airnav_url": "https://www.airnav.com/airport/KPWT",
        "status": "",
        "status_date": "",
        "status_note": ""
      },
      "geometry": {
        "type": "Point",
        "coordinates": [
          -122.76499938965,
          47.490200042725
        ]
      }
    },
    {
      "type": "Feature",
      "properties": {
        "restaurant_name": "The Hub - Gig Harbor",
        "type": "on-airport",
        "region": "PNW",
        "source": "Substack review",
        "website": "https://www.toasttab.com/the.hub.gig.harbor/v3",
        "substack_post": "https://airportrestaurants.substack.com/p/the-hub-gig-harbor",
        "notes": "On-field restaurant right at Tacoma Narrows with runway views. Burgers, pizza, Cajun tots and Harmon craft beers on tap. Watch GA aircraft and business jets roll by. Open daily 11AM–9PM.",
        "airport_ident": "KTIW",
        "airport_name": "Tacoma Narrows Airport",
        "city": "Gig Harbor",
        "state": "WA",
        "iso_region": "US-WA",
        "slug": "the-hub-gig-harbor-ktiw",
        "airnav_url": "https://www.airnav.com/airport/KTIW",
        "status": "",
        "status_date": "",
        "status_note": ""
      },
      "geometry": {
        "type": "Point",
        "coordinates": [
          -122.577295,
          47.267407
        ]
      }
    },
    {
      "type": "Feature",
      "properties": {
        "restaurant_name": "Gaston's Restaurant",
        "type": "on-airport",
        "region": "South",
        "source": "Seed list",
        "website": "https://gastons.com",
        "substack_post": "",
        "notes": "World-famous fly-in fishing resort on the White River. The restaurant serves fresh trout caught steps from the table. One of the most unique fly-in dining experiences in the country — land on the private strip and walk to the table.",
        "airport_ident": "3M0",
        "airport_name": "Gaston's Airport",
        "city": "Lakeview",
        "state": "AR",
        "iso_region": "US-AR",
        "slug": "gastons-restaurant-3m0",
        "airnav_url": "https://www.airnav.com/airport/3M0",
        "status": "",
        "status_date": "",
        "status_note": ""
      },
      "geometry": {
        "type": "Point",
        "coordinates": [
          -92.557098,
          36.348701
        ]
      }
    },
    {
      "type": "Feature",
      "properties": {
        "restaurant_name": "Flo's Airport Café",
        "type": "on-airport",
        "region": "SoCal",
        "source": "Seed list",
        "website": "",
        "substack_post": "",
        "notes": "Classic airport diner at Chino Airport — home of the Planes of Fame Air Museum. Breakfast and lunch staples served with a side of warbird sightings. A longtime favorite for pilots flying the Southern California basin. Sources disagree on hours; the operator's own ordering page says Tue–Sun 6AM–3PM. Call (909) 597-3416.",
        "airport_ident": "KCNO",
        "airport_name": "Chino Airport",
        "city": "Chino",
        "state": "CA",
        "iso_region": "US-CA",
        "slug": "flos-airport-café-kcno",
        "airnav_url": "https://www.airnav.com/airport/KCNO",
        "status": "",
        "status_date": "",
        "status_note": ""
      },
      "geometry": {
        "type": "Point",
        "coordinates": [
          -117.637001,
          33.97470093
        ]
      }
    },
    {
      "type": "Feature",
      "properties": {
        "restaurant_name": "Harris Ranch Restaurant",
        "type": "on-airport",
        "region": "CA",
        "source": "Seed list",
        "website": "https://harrisranch.com",
        "substack_post": "",
        "notes": "A legendary California pit stop on the I-5 corridor. Land at the private Harris Ranch strip and walk to one of the state's most famous steakhouses. Prime beef raised on-site. Open for breakfast, lunch and dinner daily.",
        "airport_ident": "3O8",
        "airport_name": "Harris Ranch Airport",
        "city": "Coalinga",
        "state": "CA",
        "iso_region": "US-CA",
        "slug": "harris-ranch-restaurant-3o8",
        "airnav_url": "https://www.airnav.com/airport/3O8",
        "status": "",
        "status_date": "",
        "status_note": ""
      },
      "geometry": {
        "type": "Point",
        "coordinates": [
          -120.238323,
          36.247813
        ]
      }
    },
    {
      "type": "Feature",
      "properties": {
        "restaurant_name": "Waypoint Cafe",
        "type": "on-airport",
        "region": "SoCal",
        "source": "Seed list",
        "website": "",
        "substack_post": "",
        "notes": "Popular on-field café at Camarillo Airport serving breakfast and lunch. Generous portions and a friendly pilot crowd. On clear days the Channel Islands are visible from the ramp. Open daily 7AM–3PM.",
        "airport_ident": "KCMA",
        "airport_name": "Camarillo Airport",
        "city": "Camarillo",
        "state": "CA",
        "iso_region": "US-CA",
        "slug": "waypoint-cafe-kcma",
        "airnav_url": "https://www.airnav.com/airport/KCMA",
        "status": "",
        "status_date": "",
        "status_note": ""
      },
      "geometry": {
        "type": "Point",
        "coordinates": [
          -119.094002,
          34.213699
        ]
      }
    },
    {
      "type": "Feature",
      "properties": {
        "restaurant_name": "The Perfect Landing",
        "type": "on-airport",
        "region": "Mountain",
        "source": "Seed list",
        "website": "https://perfectlandingrestaurant.com",
        "substack_post": "",
        "notes": "Upscale dining with panoramic views of the Front Range and runway at Centennial Airport. One of Colorado's best airport restaurants — think steaks and Colorado craft beers with a view of the Rockies. Open for lunch and dinner.",
        "airport_ident": "KAPA",
        "airport_name": "Centennial Airport",
        "city": "Englewood",
        "state": "CO",
        "iso_region": "US-CO",
        "slug": "the-perfect-landing-kapa",
        "airnav_url": "https://www.airnav.com/airport/KAPA",
        "status": "",
        "status_date": "",
        "status_note": ""
      },
      "geometry": {
        "type": "Point",
        "coordinates": [
          -104.848999,
          39.57009888
        ]
      }
    },
    {
      "type": "Feature",
      "properties": {
        "restaurant_name": "Restaurant 121",
        "type": "on-airport",
        "region": "Northeast",
        "source": "Seed list",
        "website": "",
        "substack_post": "",
        "notes": "On-field restaurant at Waterbury-Oxford with runway views. Breakfast and lunch served daily. Local favorite for weekend fly-ins in the Connecticut hills. Named for the airport elevation — 726 feet MSL.",
        "airport_ident": "KOXC",
        "airport_name": "Waterbury-Oxford Airport",
        "city": "Oxford",
        "state": "CT",
        "iso_region": "US-CT",
        "slug": "restaurant-121-koxc",
        "airnav_url": "https://www.airnav.com/airport/KOXC",
        "status": "closed",
        "status_date": "2020-03-16",
        "status_note": "Closed under Connecticut's COVID dine-in ban and never reopened. Volo now occupies the same building at 7 Juliano Drive."
      },
      "geometry": {
        "type": "Point",
        "coordinates": [
          -73.135200500488,
          41.47859954834
        ]
      }
    },
    {
      "type": "Feature",
      "properties": {
        "restaurant_name": "The Downwind Café",
        "type": "on-airport",
        "region": "FL",
        "source": "Seed list",
        "website": "",
        "substack_post": "",
        "notes": "Located inside the famous Spruce Creek Fly-In community — one of the largest residential airparks in the world. Casual café atmosphere with a mix of resident pilots and visiting aviators. Great spot to soak up the unique fly-in neighborhood vibe.",
        "airport_ident": "7FL6",
        "airport_name": "Spruce Creek Fly-In",
        "city": "Port Orange",
        "state": "FL",
        "iso_region": "US-FL",
        "slug": "the-downwind-café-7fl6",
        "airnav_url": "https://www.airnav.com/airport/7FL6",
        "status": "closed",
        "status_date": "2023-06",
        "status_note": "Sold abruptly in June 2023; the new owners reopened the space as Fly In Cafe."
      },
      "geometry": {
        "type": "Point",
        "coordinates": [
          -81.04669952392578,
          29.0802001953125
        ]
      }
    },
    {
      "type": "Feature",
      "properties": {
        "restaurant_name": "CJ Cannon's",
        "type": "on-airport",
        "region": "FL",
        "source": "Seed list",
        "website": "https://cjcannons.com",
        "substack_post": "",
        "notes": "A Vero Beach institution right on the airport with sweeping runway views. Known for generous portions of American comfort food and a lively bar. Popular with both Piper training fleet pilots from next door and transient GA traffic.",
        "airport_ident": "KVRB",
        "airport_name": "Vero Beach Regional Airport",
        "city": "Vero Beach",
        "state": "FL",
        "iso_region": "US-FL",
        "slug": "cj-cannons-kvrb",
        "airnav_url": "https://www.airnav.com/airport/KVRB",
        "status": "",
        "status_date": "",
        "status_note": ""
      },
      "geometry": {
        "type": "Point",
        "coordinates": [
          -80.417901,
          27.6556
        ]
      }
    },
    {
      "type": "Feature",
      "properties": {
        "restaurant_name": "Flightline Café",
        "type": "on-airport",
        "region": "FL",
        "source": "Seed list",
        "website": "",
        "substack_post": "",
        "notes": "Casual on-field diner at Winter Haven Regional serving breakfast and lunch. Friendly staff and a loyal local pilot following. Good stopping point between Tampa and Orlando in the heart of central Florida's lake country.",
        "airport_ident": "KGIF",
        "airport_name": "Winter Haven Regional Airport",
        "city": "Winter Haven",
        "state": "FL",
        "iso_region": "US-FL",
        "slug": "flightline-café-kgif",
        "airnav_url": "https://www.airnav.com/airport/KGIF",
        "status": "",
        "status_date": "",
        "status_note": ""
      },
      "geometry": {
        "type": "Point",
        "coordinates": [
          -81.753304,
          28.062901
        ]
      }
    },
    {
      "type": "Feature",
      "properties": {
        "restaurant_name": "Runways at Bartow",
        "type": "on-airport",
        "region": "FL",
        "source": "Seed list",
        "website": "",
        "substack_post": "",
        "notes": "On-field restaurant at Bartow Municipal in the heart of Polk County. Breakfast and lunch with views of the ramp and a rotating menu of daily specials. A quiet alternative to busier central Florida airports.",
        "airport_ident": "KBOW",
        "airport_name": "Bartow Municipal Airport",
        "city": "Bartow",
        "state": "FL",
        "iso_region": "US-FL",
        "slug": "runways-at-bartow-kbow",
        "airnav_url": "https://www.airnav.com/airport/KBOW",
        "status": "closed",
        "status_date": "2024",
        "status_note": "Ceased operations in 2024 with no public announcement. Tantrums Flightside Cafe now runs the terminal restaurant."
      },
      "geometry": {
        "type": "Point",
        "coordinates": [
          -81.783401,
          27.943399
        ]
      }
    },
    {
      "type": "Feature",
      "properties": {
        "restaurant_name": "Suncoast Café",
        "type": "on-airport",
        "region": "FL",
        "source": "Seed list",
        "website": "",
        "substack_post": "",
        "notes": "Relaxed café at Venice Municipal — the shark tooth capital of the world. Breakfast and lunch with a friendly airport crowd. Venice has one of the most active GA communities on Florida's Gulf Coast.",
        "airport_ident": "KVNC",
        "airport_name": "Venice Municipal Airport",
        "city": "Venice",
        "state": "FL",
        "iso_region": "US-FL",
        "slug": "suncoast-café-kvnc",
        "airnav_url": "https://www.airnav.com/airport/KVNC",
        "status": "",
        "status_date": "",
        "status_note": ""
      },
      "geometry": {
        "type": "Point",
        "coordinates": [
          -82.440815,
          27.070541
        ]
      }
    },
    {
      "type": "Feature",
      "properties": {
        "restaurant_name": "Tailwind Café",
        "type": "on-airport",
        "region": "FL",
        "source": "Seed list",
        "website": "",
        "substack_post": "",
        "notes": "On-field café at Ocala International serving breakfast and lunch to the north-central Florida GA community. Horse country surrounds the airport — a good fuel and food stop between Gainesville and the I-4 corridor.",
        "airport_ident": "KOCF",
        "airport_name": "Ocala Intl (Jim Taylor Field)",
        "city": "Ocala",
        "state": "FL",
        "iso_region": "US-FL",
        "slug": "tailwind-café-kocf",
        "airnav_url": "https://www.airnav.com/airport/KOCF",
        "status": "closed",
        "status_date": "2019",
        "status_note": "Closed at the old terminal on SW 60th Ave. Ocala's airport restaurant is now Elevation 89, in the newer Sheltair terminal building."
      },
      "geometry": {
        "type": "Point",
        "coordinates": [
          -82.22419739,
          29.17259979
        ]
      }
    },
    {
      "type": "Feature",
      "properties": {
        "restaurant_name": "The Hangar Restaurant & Flight Lounge",
        "type": "on-airport",
        "region": "FL",
        "source": "Seed list",
        "website": "",
        "substack_post": "",
        "notes": "Waterfront airport restaurant at Albert Whitted with stunning views of Tampa Bay and the St. Pete skyline. One of Florida's most scenic dining spots. Open for breakfast and lunch — arrive early on weekends.",
        "airport_ident": "KSPG",
        "airport_name": "Albert Whitted Airport",
        "city": "St. Petersburg",
        "state": "FL",
        "iso_region": "US-FL",
        "slug": "the-hangar-restaurant-flight-lounge-kspg",
        "airnav_url": "https://www.airnav.com/airport/KSPG",
        "status": "",
        "status_date": "",
        "status_note": ""
      },
      "geometry": {
        "type": "Point",
        "coordinates": [
          -82.626999,
          27.7651
        ]
      }
    },
    {
      "type": "Feature",
      "properties": {
        "restaurant_name": "Landing Strip Café",
        "type": "on-airport",
        "region": "FL",
        "source": "Seed list",
        "website": "",
        "substack_post": "",
        "notes": "Down-home Florida diner at Okeechobee County Airport. Breakfast and lunch served to a mix of ag pilots, fishermen and cross-country traffic. Okeechobee sits at the north end of the lake — good stopping point for south Florida trips.",
        "airport_ident": "KOBE",
        "airport_name": "Okeechobee County Airport",
        "city": "Okeechobee",
        "state": "FL",
        "iso_region": "US-FL",
        "slug": "landing-strip-café-kobe",
        "airnav_url": "https://www.airnav.com/airport/KOBE",
        "status": "",
        "status_date": "",
        "status_note": ""
      },
      "geometry": {
        "type": "Point",
        "coordinates": [
          -80.8498001099,
          27.262800216699997
        ]
      }
    },
    {
      "type": "Feature",
      "properties": {
        "restaurant_name": "Jet Runway Café",
        "type": "on-airport",
        "region": "FL",
        "source": "Seed list",
        "website": "",
        "substack_post": "",
        "notes": "Casual café at Fort Lauderdale Executive — one of the busiest GA airports in the country. Breakfast and lunch with a front-row seat to a parade of jets, turboprops and helicopters. Great people-watching between bites.",
        "airport_ident": "KFXE",
        "airport_name": "Fort Lauderdale Executive Airport",
        "city": "Fort Lauderdale",
        "state": "FL",
        "iso_region": "US-FL",
        "slug": "jet-runway-café-kfxe",
        "airnav_url": "https://www.airnav.com/airport/KFXE",
        "status": "",
        "status_date": "",
        "status_note": ""
      },
      "geometry": {
        "type": "Point",
        "coordinates": [
          -80.1707000732,
          26.1972999573
        ]
      }
    },
    {
      "type": "Feature",
      "properties": {
        "restaurant_name": "57th Fighter Group Restaurant",
        "type": "near-airport",
        "region": "GA",
        "source": "Seed list",
        "website": "https://the57threstaurant.com",
        "substack_post": "",
        "notes": "WWII-themed restaurant adjacent to DeKalb-Peachtree with a control tower you can dine in. Runway views, wartime memorabilia and a full menu of American classics. One of the most atmospheric airport-adjacent restaurants in the Southeast.",
        "airport_ident": "KPDK",
        "airport_name": "DeKalb-Peachtree Airport",
        "city": "Atlanta",
        "state": "GA",
        "iso_region": "US-GA",
        "slug": "57th-fighter-group-restaurant-kpdk",
        "airnav_url": "https://www.airnav.com/airport/KPDK",
        "status": "",
        "status_date": "",
        "status_note": ""
      },
      "geometry": {
        "type": "Point",
        "coordinates": [
          -84.30213,
          33.87633
        ]
      }
    },
    {
      "type": "Feature",
      "properties": {
        "restaurant_name": "Pilot Pete's",
        "type": "on-airport",
        "region": "Midwest",
        "source": "Seed list",
        "website": "",
        "substack_post": "",
        "notes": "Beloved on-field diner at Schaumburg Regional in the Chicago suburbs. Big breakfasts, burgers and a loyal pilot crowd. One of the busiest small GA airports in Illinois — expect company on weekend mornings.",
        "airport_ident": "06C",
        "airport_name": "Schaumburg Regional Airport",
        "city": "Schaumburg",
        "state": "IL",
        "iso_region": "US-IL",
        "slug": "pilot-petes-06c",
        "airnav_url": "https://www.airnav.com/airport/06C",
        "status": "",
        "status_date": "",
        "status_note": ""
      },
      "geometry": {
        "type": "Point",
        "coordinates": [
          -88.1011962891,
          41.9892997742
        ]
      }
    },
    {
      "type": "Feature",
      "properties": {
        "restaurant_name": "Rick's Café Boatyard",
        "type": "near-airport",
        "region": "Midwest",
        "source": "Seed list",
        "website": "https://rickscafeboatyard.com",
        "substack_post": "",
        "notes": "Waterfront restaurant on Eagle Creek Reservoir adjacent to Eagle Creek Airpark. Seafood, burgers and lake views. A fun combination of the boating and flying communities in one spot on the west side of Indianapolis.",
        "airport_ident": "KEYE",
        "airport_name": "Eagle Creek Airpark",
        "city": "Indianapolis",
        "state": "IN",
        "iso_region": "US-IN",
        "slug": "ricks-café-boatyard-keye",
        "airnav_url": "https://www.airnav.com/airport/KEYE",
        "status": "",
        "status_date": "",
        "status_note": ""
      },
      "geometry": {
        "type": "Point",
        "coordinates": [
          -86.294403076172,
          39.830699920654
        ]
      }
    },
    {
      "type": "Feature",
      "properties": {
        "restaurant_name": "The Beaumont Hotel Café",
        "type": "on-airport",
        "region": "Midwest",
        "source": "Seed list",
        "website": "",
        "substack_post": "",
        "notes": "Historic hotel café at a private Kansas airstrip. The Beaumont Hotel dates to 1879 and has hosted cattle drives and oil barons. A genuine step back in time — land at the grass strip and walk to the dining room.",
        "airport_ident": "07S",
        "airport_name": "Beaumont Hotel Airport",
        "city": "Beaumont",
        "state": "KS",
        "iso_region": "US-KS",
        "slug": "the-beaumont-hotel-café-07s",
        "airnav_url": "https://www.airnav.com/airport/07S",
        "status": "",
        "status_date": "",
        "status_note": ""
      },
      "geometry": {
        "type": "Point",
        "coordinates": [
          -96.527198791504,
          37.659198760986
        ]
      }
    },
    {
      "type": "Feature",
      "properties": {
        "restaurant_name": "Bistro Le Relais",
        "type": "on-airport",
        "region": "South",
        "source": "Seed list",
        "website": "https://lerelaisrestaurant.com",
        "substack_post": "",
        "notes": "French bistro in the historic terminal at Bowman Field — one of the oldest operating airports in the US. White tablecloths and classic French cuisine next to a ramp full of vintage aircraft. A genuinely surprising find at a Kentucky GA airport.",
        "airport_ident": "KLOU",
        "airport_name": "Bowman Field",
        "city": "Louisville",
        "state": "KY",
        "iso_region": "US-KY",
        "slug": "bistro-le-relais-klou",
        "airnav_url": "https://www.airnav.com/airport/KLOU",
        "status": "",
        "status_date": "",
        "status_note": ""
      },
      "geometry": {
        "type": "Point",
        "coordinates": [
          -85.6636962891,
          38.2280006409
        ]
      }
    },
    {
      "type": "Feature",
      "properties": {
        "restaurant_name": "Nancy's Air Field Café",
        "type": "on-airport",
        "region": "Northeast",
        "source": "Seed list",
        "website": "",
        "substack_post": "",
        "notes": "Classic New England airport diner at Minute Man Airfield west of Boston. Famous among local pilots for generous breakfasts and friendly service. The airfield has strong ties to the local Civil Air Patrol and EAA community.",
        "airport_ident": "6B6",
        "airport_name": "Minute Man Air Field",
        "city": "Stow",
        "state": "MA",
        "iso_region": "US-MA",
        "slug": "nancys-air-field-café-6b6",
        "airnav_url": "https://www.airnav.com/airport/6B6",
        "status": "closed",
        "status_date": "2023-04",
        "status_note": "Closed in spring 2023 when the owner retired after 27 years. Fourth & Field opened in the space that September."
      },
      "geometry": {
        "type": "Point",
        "coordinates": [
          -71.519031,
          42.460298
        ]
      }
    },
    {
      "type": "Feature",
      "properties": {
        "restaurant_name": "Crosswinds Restaurant",
        "type": "on-airport",
        "region": "Northeast",
        "source": "Seed list",
        "website": "",
        "substack_post": "",
        "notes": "On-field restaurant at Nantucket Memorial with views of one of the most scenic GA airports on the East Coast. Breakfast and lunch — expect a mix of island residents, ferry commuters and summer transient traffic from throughout the Northeast.",
        "airport_ident": "KACK",
        "airport_name": "Nantucket Memorial Airport",
        "city": "Nantucket",
        "state": "MA",
        "iso_region": "US-MA",
        "slug": "crosswinds-restaurant-kack",
        "airnav_url": "https://www.airnav.com/airport/KACK",
        "status": "",
        "status_date": "",
        "status_note": ""
      },
      "geometry": {
        "type": "Point",
        "coordinates": [
          -70.06020355,
          41.25310135
        ]
      }
    },
    {
      "type": "Feature",
      "properties": {
        "restaurant_name": "Holman's Table",
        "type": "on-airport",
        "region": "Midwest",
        "source": "Seed list",
        "website": "https://holmanstable.com",
        "substack_post": "",
        "notes": "Upscale farm-to-table dining in the historic Holman Field terminal building overlooking the Mississippi River and downtown St. Paul skyline. One of the most architecturally beautiful airport restaurants in the Midwest. Lunch and dinner.",
        "airport_ident": "KSTP",
        "airport_name": "St. Paul Downtown Airport",
        "city": "St. Paul",
        "state": "MN",
        "iso_region": "US-MN",
        "slug": "holmans-table-kstp",
        "airnav_url": "https://www.airnav.com/airport/KSTP",
        "status": "",
        "status_date": "",
        "status_note": ""
      },
      "geometry": {
        "type": "Point",
        "coordinates": [
          -93.060036,
          44.93479
        ]
      }
    },
    {
      "type": "Feature",
      "properties": {
        "restaurant_name": "Pik-N-Pig BBQ",
        "type": "on-airport",
        "region": "NC",
        "source": "Seed list",
        "website": "https://piknpig.com",
        "substack_post": "",
        "notes": "A genuine BBQ landmark accessible only by air or a bumpy dirt road. Fly into this grass strip in the North Carolina Sandhills and taxi up to a pulled pork sandwich that's worth the trip. A bucket-list fly-in for East Coast pilots. Thu–Sun only.",
        "airport_ident": "5NC3",
        "airport_name": "Gilliam-McConnell Airfield",
        "city": "Carthage",
        "state": "NC",
        "iso_region": "US-NC",
        "slug": "pik-n-pig-bbq-5nc3",
        "airnav_url": "https://www.airnav.com/airport/5NC3",
        "status": "",
        "status_date": "",
        "status_note": ""
      },
      "geometry": {
        "type": "Point",
        "coordinates": [
          -79.436897,
          35.341702
        ]
      }
    },
    {
      "type": "Feature",
      "properties": {
        "restaurant_name": "Flight Deck Diner",
        "type": "on-airport",
        "region": "Northeast",
        "source": "Seed list",
        "website": "",
        "substack_post": "",
        "notes": "On-field diner at Cape May Airport on the southern tip of New Jersey. Breakfast and lunch served to a mix of shore-bound vacationers and transient GA traffic. One of the more scenic GA airports in the mid-Atlantic.",
        "airport_ident": "KWWD",
        "airport_name": "Cape May Airport",
        "city": "Cape May",
        "state": "NJ",
        "iso_region": "US-NJ",
        "slug": "flight-deck-diner-kwwd",
        "airnav_url": "https://www.airnav.com/airport/KWWD",
        "status": "closed",
        "status_date": "2026-03-14",
        "status_note": "A fire-suppression pipe burst in early February 2026 and flooded the building. Engineering reports put repairs in the millions, the lease was terminated, and the owner announced permanent closure on March 14, 2026. Note: capemayairport.com still advertises the diner as open — it is not."
      },
      "geometry": {
        "type": "Point",
        "coordinates": [
          -74.9083023071,
          39.008499145500004
        ]
      }
    },
    {
      "type": "Feature",
      "properties": {
        "restaurant_name": "The Apron Cafe",
        "type": "on-airport",
        "region": "Northeast",
        "source": "Seed list",
        "website": "",
        "substack_post": "",
        "notes": "On-field café at Gabreski Airport on Long Island's East End — gateway to the Hamptons. Breakfast and lunch with ramp views. A popular fuel and food stop for NYC-area pilots heading out to eastern Long Island.",
        "airport_ident": "KFOK",
        "airport_name": "Francis S. Gabreski Airport",
        "city": "Westhampton Beach",
        "state": "NY",
        "iso_region": "US-NY",
        "slug": "the-apron-cafe-kfok",
        "airnav_url": "https://www.airnav.com/airport/KFOK",
        "status": "closed",
        "status_date": "2020-10",
        "status_note": "A new chef-owner took over in the fall of 2020 and rebranded the space as Cafe Volo."
      },
      "geometry": {
        "type": "Point",
        "coordinates": [
          -72.6317977905,
          40.8437004089
        ]
      }
    },
    {
      "type": "Feature",
      "properties": {
        "restaurant_name": "Hangars Cafe",
        "type": "on-airport",
        "region": "Northeast",
        "source": "Seed list",
        "website": "",
        "substack_post": "",
        "notes": "Beloved Hudson Valley airport diner at Sky Acres. Breakfast and lunch served to a tight-knit local flying community. The airport has one of the most active pilot communities in the mid-Hudson Valley. Worth the trip from NYC.",
        "airport_ident": "44N",
        "airport_name": "Sky Acres Airport",
        "city": "Poughkeepsie",
        "state": "NY",
        "iso_region": "US-NY",
        "slug": "hangars-cafe-44n",
        "airnav_url": "https://www.airnav.com/airport/44N",
        "status": "",
        "status_date": "",
        "status_note": ""
      },
      "geometry": {
        "type": "Point",
        "coordinates": [
          -73.737999,
          41.707401
        ]
      }
    },
    {
      "type": "Feature",
      "properties": {
        "restaurant_name": "Sky Galley",
        "type": "on-airport",
        "region": "Midwest",
        "source": "Seed list",
        "website": "",
        "substack_post": "",
        "notes": "On-field restaurant at Lunken Airport — one of the oldest airports in the country — with art deco terminal views and a classic American menu. Breakfast and lunch. A beloved institution for the Cincinnati aviation community.",
        "airport_ident": "KLUK",
        "airport_name": "Cincinnati Municipal Lunken Airport",
        "city": "Cincinnati",
        "state": "OH",
        "iso_region": "US-OH",
        "slug": "sky-galley-kluk",
        "airnav_url": "https://www.airnav.com/airport/KLUK",
        "status": "closed",
        "status_date": "2020-09-20",
        "status_note": "Closed September 20, 2020 after decades at Lunken. The terminal restaurant space has been vacant since; a boutique hotel with its own restaurant is under construction as of 2026."
      },
      "geometry": {
        "type": "Point",
        "coordinates": [
          -84.418945,
          39.102357
        ]
      }
    },
    {
      "type": "Feature",
      "properties": {
        "restaurant_name": "Tin Goose Diner",
        "type": "on-airport",
        "region": "Midwest",
        "source": "Seed list",
        "website": "",
        "substack_post": "",
        "notes": "Named for the Ford Tri-Motor, this diner at Erie-Ottawa International sits on the shores of Lake Erie. Breakfast and lunch with lake views. Port Clinton is the walleye capital of the world — fish specials are a regular feature.",
        "airport_ident": "KPCW",
        "airport_name": "Erie-Ottawa International Airport",
        "city": "Port Clinton",
        "state": "OH",
        "iso_region": "US-OH",
        "slug": "tin-goose-diner-kpcw",
        "airnav_url": "https://www.airnav.com/airport/KPCW",
        "status": "",
        "status_date": "",
        "status_note": ""
      },
      "geometry": {
        "type": "Point",
        "coordinates": [
          -82.868328,
          41.515647
        ]
      }
    },
    {
      "type": "Feature",
      "properties": {
        "restaurant_name": "Jake's Joint",
        "type": "on-airport",
        "region": "South",
        "source": "Seed list",
        "website": "",
        "substack_post": "",
        "notes": "Down-home Oklahoma diner at Ardmore Municipal with a devoted local following. Breakfast and lunch at a price that makes you feel like you're back in 1985. A good fuel stop on the I-35 corridor between Oklahoma City and Dallas.",
        "airport_ident": "KADM",
        "airport_name": "Ardmore Municipal Airport",
        "city": "Ardmore",
        "state": "OK",
        "iso_region": "US-OK",
        "slug": "jakes-joint-kadm",
        "airnav_url": "https://www.airnav.com/airport/KADM",
        "status": "",
        "status_date": "",
        "status_note": ""
      },
      "geometry": {
        "type": "Point",
        "coordinates": [
          -97.0196342,
          34.30301
        ]
      }
    },
    {
      "type": "Feature",
      "properties": {
        "restaurant_name": "DeNunzio's Italian Chophouse",
        "type": "on-airport",
        "region": "Northeast",
        "source": "Seed list",
        "website": "https://denunziosrestaurant.com",
        "substack_post": "",
        "notes": "Upscale Italian steakhouse at Arnold Palmer Regional — fittingly, in the hometown of the King himself. One of the more elegant airport restaurants in the Northeast. Dinner-focused with a full bar and sweeping views of the Laurel Highlands.",
        "airport_ident": "KLBE",
        "airport_name": "Arnold Palmer Regional Airport",
        "city": "Latrobe",
        "state": "PA",
        "iso_region": "US-PA",
        "slug": "denunzios-italian-chophouse-klbe",
        "airnav_url": "https://www.airnav.com/airport/KLBE",
        "status": "",
        "status_date": "",
        "status_note": ""
      },
      "geometry": {
        "type": "Point",
        "coordinates": [
          -79.4048,
          40.275902
        ]
      }
    },
    {
      "type": "Feature",
      "properties": {
        "restaurant_name": "Runway Café",
        "type": "on-airport",
        "region": "SC",
        "source": "Seed list",
        "website": "",
        "substack_post": "",
        "notes": "On-field café at Greenville Downtown with ramp views and a loyal local pilot crowd. Breakfast and lunch in the heart of the South Carolina Upstate. The airport sits minutes from downtown Greenville — one of the most revitalized mid-size cities in the Southeast.",
        "airport_ident": "KGMU",
        "airport_name": "Greenville Downtown Airport",
        "city": "Greenville",
        "state": "SC",
        "iso_region": "US-SC",
        "slug": "runway-café-kgmu",
        "airnav_url": "https://www.airnav.com/airport/KGMU",
        "status": "closed",
        "status_date": "2025-05-26",
        "status_note": "The Airport Commission did not renew the lease after 15 years. Hangar 28 Kitchen & Events opened in the space in July 2026."
      },
      "geometry": {
        "type": "Point",
        "coordinates": [
          -82.350217,
          34.847903
        ]
      }
    },
    {
      "type": "Feature",
      "properties": {
        "restaurant_name": "Southern Flyer Diner",
        "type": "on-airport",
        "region": "TX",
        "source": "Seed list",
        "website": "",
        "substack_post": "",
        "notes": "A Texas institution. The Southern Flyer is one of the most talked-about airport diners in the state — chicken fried steak, jalapeño cornbread and sweet tea. Brenham is Blue Bell ice cream country. Breakfast and lunch Fri–Sun. Worth planning a trip around.",
        "airport_ident": "11R",
        "airport_name": "Brenham Municipal Airport",
        "city": "Brenham",
        "state": "TX",
        "iso_region": "US-TX",
        "slug": "southern-flyer-diner-11r",
        "airnav_url": "https://www.airnav.com/airport/11R",
        "status": "closed",
        "status_date": "2020-08",
        "status_note": "Closed in the COVID dine-in shutdown. A successor, the Dreamliner Diner, ran Dec 2021 – Dec 2022; the space has been under renovation since."
      },
      "geometry": {
        "type": "Point",
        "coordinates": [
          -96.374298,
          30.219
        ]
      }
    },
    {
      "type": "Feature",
      "properties": {
        "restaurant_name": "Hangar 6 Air Café",
        "type": "on-airport",
        "region": "TX",
        "source": "Seed list",
        "website": "",
        "substack_post": "",
        "notes": "On-field café at Garner Field in the Texas Hill Country. Breakfast and lunch with a strong local ranching and hunting crowd. Uvalde is one of the highest-density quail hunting areas in Texas — expect to share the ramp with hunting camp traffic in season.",
        "airport_ident": "KUVA",
        "airport_name": "Garner Field",
        "city": "Uvalde",
        "state": "TX",
        "iso_region": "US-TX",
        "slug": "hangar-6-air-café-kuva",
        "airnav_url": "https://www.airnav.com/airport/KUVA",
        "status": "",
        "status_date": "",
        "status_note": ""
      },
      "geometry": {
        "type": "Point",
        "coordinates": [
          -99.743598938,
          29.2112998962
        ]
      }
    },
    {
      "type": "Feature",
      "properties": {
        "restaurant_name": "Hard Eight BBQ",
        "type": "near-airport",
        "region": "TX",
        "source": "Seed list",
        "website": "https://hardeightbbq.com",
        "substack_post": "",
        "notes": "One of Texas's most celebrated BBQ joints — brisket, ribs and sausage cooked over mesquite in open pits out front. A short drive from Stephenville Clark Regional in the heart of Cowboy Country. The smell hits you a mile out. Open daily.",
        "airport_ident": "KSEP",
        "airport_name": "Stephenville Clark Regional Airport",
        "city": "Stephenville",
        "state": "TX",
        "iso_region": "US-TX",
        "slug": "hard-eight-bbq-ksep",
        "airnav_url": "https://www.airnav.com/airport/KSEP",
        "status": "",
        "status_date": "",
        "status_note": ""
      },
      "geometry": {
        "type": "Point",
        "coordinates": [
          -98.177696,
          32.215302
        ]
      }
    },
    {
      "type": "Feature",
      "properties": {
        "restaurant_name": "Aviator's Grill",
        "type": "on-airport",
        "region": "TX",
        "source": "Seed list",
        "website": "",
        "substack_post": "",
        "notes": "On-field restaurant at Hooks — one of the busiest GA airports in the Houston metro. Breakfast and lunch with ramp views of a constant stream of GA traffic. A reliable fuel-and-food stop north of Houston.",
        "airport_ident": "KDWH",
        "airport_name": "David Wayne Hooks Memorial Airport",
        "city": "Spring",
        "state": "TX",
        "iso_region": "US-TX",
        "slug": "aviators-grill-kdwh",
        "airnav_url": "https://www.airnav.com/airport/KDWH",
        "status": "",
        "status_date": "",
        "status_note": ""
      },
      "geometry": {
        "type": "Point",
        "coordinates": [
          -95.55280303960001,
          30.0618000031
        ]
      }
    },
    {
      "type": "Feature",
      "properties": {
        "restaurant_name": "McGehee Catfish Restaurant",
        "type": "on-airport",
        "region": "South",
        "source": "Seed list",
        "website": "https://www.mcgeheescatfish.com",
        "substack_post": "",
        "notes": "A Red River institution since 1972, built on all-you-can-eat fried catfish with homemade hushpuppies, fresh-cut fries, coleslaw and a green tomato relish, finished with fried pies. For decades the turf strip ran right up to the door and this was one of the best-known fly-in meals in the region. Thu–Fri 5PM–8PM · Sat 1PM–8PM · Sun 1PM–7PM · Closed Mon–Wed.",
        "airport_ident": "T40",
        "airport_name": "McGehee Catfish Restaurant Airport",
        "city": "Marietta",
        "state": "OK",
        "iso_region": "",
        "slug": "mcgehee-catfish-restaurant-t40",
        "airnav_url": "",
        "status": "closed",
        "status_date": "2020-02",
        "status_note": "The restaurant is still open — the airstrip is not. FAA data carries T40 as closed and non-operational as of February 2020, and pilot reports put it out of use for transient traffic long before that. Two 2007 accidents are on the NTSB record; the Board attributed both to the pilots, and per AOPA the runway was already closed and marked with an X about a month before the second one — so the accidents did not close the field. The airport is literally named for the restaurant, which is why fly-in directories keep listing it. Reachable by car only: the nearest fields with fuel are Ardmore Downtown Executive (1F0) 15nm north and Gainesville Municipal (KGLE) 15nm south, each about 26 road miles. Arrange ground transport before you launch."
      },
      "geometry": {
        "type": "Point",
        "coordinates": [
          -97.1705,
          33.899
        ]
      }
    },
    {
      "type": "Feature",
      "properties": {
        "restaurant_name": "Volanti",
        "type": "on-airport",
        "region": "AZ",
        "source": "Seed list",
        "website": "https://volantiscottsdale.com",
        "substack_post": "",
        "notes": "Upscale restaurant at Scottsdale Airport with sweeping desert views and a sleek modern interior. One of the most polished airport dining experiences in the Southwest. Lunch and dinner — expect a sophisticated crowd and a serious cocktail program.",
        "airport_ident": "KSDL",
        "airport_name": "Scottsdale Airport",
        "city": "Scottsdale",
        "state": "AZ",
        "iso_region": "US-AZ",
        "slug": "volanti-ksdl",
        "airnav_url": "https://www.airnav.com/airport/KSDL",
        "status": "",
        "status_date": "",
        "status_note": ""
      },
      "geometry": {
        "type": "Point",
        "coordinates": [
          -111.91100311279,
          33.622898101807
        ]
      }
    },
    {
      "type": "Feature",
      "properties": {
        "restaurant_name": "Mesa Grill",
        "type": "on-airport",
        "region": "AZ",
        "source": "Seed list",
        "website": "https://sedonamesagrill.com",
        "substack_post": "",
        "notes": "Perched on top of the Sedona Airport mesa at 4,800 feet with arguably the most dramatic views of any airport restaurant in the country. Red rock formations in every direction. Breakfast and lunch — arrive early before the tour helicopter traffic picks up.",
        "airport_ident": "KSEZ",
        "airport_name": "Sedona Airport",
        "city": "Sedona",
        "state": "AZ",
        "iso_region": "US-AZ",
        "slug": "mesa-grill-ksez",
        "airnav_url": "https://www.airnav.com/airport/KSEZ",
        "status": "",
        "status_date": "",
        "status_note": ""
      },
      "geometry": {
        "type": "Point",
        "coordinates": [
          -111.78800201416,
          34.848598480225
        ]
      }
    },
    {
      "type": "Feature",
      "properties": {
        "restaurant_name": "Flight Deck Restaurant & Lounge",
        "type": "on-airport",
        "region": "PNW",
        "source": "Seed list",
        "website": "https://flightdeckrestaurant.com",
        "substack_post": "",
        "notes": "On-field restaurant established in 1968 at Salem McNary Field with windows on three sides giving panoramic views of the runway and Cascade Mountains. Northwest American cuisine with homemade soups, desserts and a full bar. A classic $100 hamburger destination on the I-5 corridor. Mon–Fri 11AM–9PM · Sat–Sun 8AM–9PM.",
        "airport_ident": "KSLE",
        "airport_name": "Salem McNary Field",
        "city": "Salem",
        "state": "OR",
        "iso_region": "US-OR",
        "slug": "flight-deck-restaurant-lounge-ksle",
        "airnav_url": "https://www.airnav.com/airport/KSLE",
        "status": "",
        "status_date": "",
        "status_note": ""
      },
      "geometry": {
        "type": "Point",
        "coordinates": [
          -123.002998,
          44.9095
        ]
      }
    },
    {
      "type": "Feature",
      "properties": {
        "restaurant_name": "Ellie's at the Airport",
        "type": "on-airport",
        "region": "PNW",
        "source": "Seed list",
        "website": "",
        "substack_post": "",
        "notes": "On-field diner at Arlington Municipal with direct runway views and a devoted local following. Classic American breakfast and lunch — the omelets and French fries draw particular praise. A lively spot with a full bar and a mix of pilots, hangar tenants and locals. Mon–Fri 8AM–2PM · Sat–Sun 8AM–2PM.",
        "airport_ident": "KAWO",
        "airport_name": "Arlington Municipal Airport",
        "city": "Arlington",
        "state": "WA",
        "iso_region": "US-WA",
        "slug": "ellies-at-the-airport-kawo",
        "airnav_url": "https://www.airnav.com/airport/KAWO",
        "status": "",
        "status_date": "",
        "status_note": ""
      },
      "geometry": {
        "type": "Point",
        "coordinates": [
          -122.158442,
          48.161448
        ]
      }
    },
    {
      "type": "Feature",
      "properties": {
        "restaurant_name": "Volo",
        "type": "on-airport",
        "region": "Northeast",
        "source": "2026 freshness pass",
        "website": "https://voloatoxford.com",
        "substack_post": "",
        "notes": "Opened in the former Restaurant 121 space, which their own site puts about 300 feet from the runway, with floor-to-ceiling glass and both indoor and patio seating. It is run by an in-flight catering company that moved its operation into the building, so the kitchen's aviation credentials are literal. Casual fine dining: elevated American plates plus Neapolitan pizza. Watch the schedule — lunch Tue–Sun 11AM–3PM, dinner Thu–Sat only 5PM–9:30PM, closed Mondays. Reservations suggested for parties of five or more. (203) 266-2107.",
        "airport_ident": "KOXC",
        "airport_name": "Waterbury-Oxford Airport",
        "city": "Oxford",
        "state": "CT",
        "iso_region": "US-CT",
        "slug": "volo-koxc",
        "airnav_url": "https://www.airnav.com/airport/KOXC",
        "status": "",
        "status_date": "",
        "status_note": ""
      },
      "geometry": {
        "type": "Point",
        "coordinates": [
          -73.135200500488,
          41.47859954834
        ]
      }
    },
    {
      "type": "Feature",
      "properties": {
        "restaurant_name": "Fourth & Field",
        "type": "on-airport",
        "region": "Northeast",
        "source": "2026 freshness pass",
        "website": "https://www.fourthandfield.com",
        "substack_post": "",
        "notes": "A family-run farm-to-table restaurant that took over Nancy's Air Field Café in September 2023, with about 70 seats indoors and a 75-seat patio looking out over the field. The kitchen sources from named local farms and twenty of its own garden beds; brunch is the move — corned beef hash, build-your-own omelettes, steak and cheese on an everything bagel. Wed–Fri lunch 11AM–3PM and dinner from 4PM · Sat brunch 9AM–3PM and dinner from 4PM · Sun brunch 9AM–3PM · Closed Mon–Tue. Note the field itself is on the market as of 2026, though the owners say it is business as usual.",
        "airport_ident": "6B6",
        "airport_name": "Minute Man Air Field",
        "city": "Stow",
        "state": "MA",
        "iso_region": "US-MA",
        "slug": "fourth-field-6b6",
        "airnav_url": "https://www.airnav.com/airport/6B6",
        "status": "",
        "status_date": "",
        "status_note": ""
      },
      "geometry": {
        "type": "Point",
        "coordinates": [
          -71.519031,
          42.460298
        ]
      }
    },
    {
      "type": "Feature",
      "properties": {
        "restaurant_name": "Fly In Cafe",
        "type": "near-airport",
        "region": "FL",
        "source": "2026 freshness pass",
        "website": "https://flyincafeportorange.com",
        "substack_post": "",
        "notes": "Opened September 2023 in the old Downwind Café space, keeping the cozy aviation-themed room and leaning into it on the menu — the Fly-In Omelet, the Spruce Creek Scrambler, and pizzas named The Ranch Runway and The Margherita Maneuver. Full bar, happy hour 3–7PM, live music Fri and Sat nights. Read this before you go: this is a drive-to destination. The restaurant's own access page states that 7FL6 \"is a private airport with a strict INVITEE POLICY, which does not permit any access using the runway to visit the Cafe,\" and warns that unauthorized runway use or misstating your destination \"may result in a trespass.\" Databases will mislead you here: the FAA record reads private-use PPR and AirNav even lists a POA number, but only a Spruce Creek resident can grant permission to land, the invitation must be specific to you, and the restaurant cannot issue one. You drive in through one of two guarded gates and present a license, which is copied. Breakfast Tue–Sat 8–11AM, Sun 8AM–12PM · Lunch Tue–Sat 11:30AM–4PM, Sun 12–4PM · Dinner Sun and Tue–Thu 4–8PM · Closed Mon.",
        "airport_ident": "7FL6",
        "airport_name": "Spruce Creek Fly-In",
        "city": "Port Orange",
        "state": "FL",
        "iso_region": "US-FL",
        "slug": "fly-in-cafe-7fl6",
        "airnav_url": "https://www.airnav.com/airport/7FL6",
        "status": "",
        "status_date": "",
        "status_note": ""
      },
      "geometry": {
        "type": "Point",
        "coordinates": [
          -81.04669952392578,
          29.0802001953125
        ]
      }
    },
    {
      "type": "Feature",
      "properties": {
        "restaurant_name": "Cafe Volo",
        "type": "on-airport",
        "region": "Northeast",
        "source": "2026 freshness pass",
        "website": "https://www.cafevolowhb.com",
        "substack_post": "",
        "notes": "Took over the former Apron Cafe space in the fall of 2020, at the base of the tower with a view of traffic working the field. A breakfast-and-lunch operation rather than a dinner house. This is the listing on this map we are least sure of: the restaurant posts no hours or news anywhere we could find, and the most recent independent coverage we could turn up is from early 2025 — aggregators still show it active. Treat it as probably open and call (631) 998-3573 before planning a flight around it. Gabreski also charges a landing fee and asks that you reserve with the FBO before arrival. Unrelated to Volo at Oxford, CT.",
        "airport_ident": "KFOK",
        "airport_name": "Francis S. Gabreski Airport",
        "city": "Westhampton Beach",
        "state": "NY",
        "iso_region": "US-NY",
        "slug": "cafe-volo-kfok",
        "airnav_url": "https://www.airnav.com/airport/KFOK",
        "status": "",
        "status_date": "",
        "status_note": ""
      },
      "geometry": {
        "type": "Point",
        "coordinates": [
          -72.6317977905,
          40.8437004089
        ]
      }
    },
    {
      "type": "Feature",
      "properties": {
        "restaurant_name": "Hangar 28 Kitchen & Events",
        "type": "on-airport",
        "region": "SC",
        "source": "2026 freshness pass",
        "website": "https://hangar28greenville.com",
        "substack_post": "",
        "notes": "Opened July 8, 2026 in the old Runway Café space on the South Ramp, and worth the detour if you have been missing the original. Chef-owner Trish Ballentine runs a scratch kitchen — handcrafted sandwiches, house-roasted meats, shareable plates and rotating weekly specials — with a full bar and house-made mixers. A 16-foot glass hangar door frames the runway, and there is a gated playground for anyone flying with kids. Currently Tue–Sun 11AM–3PM, closed Mon; dinner and weekend breakfast have been announced but are not yet running. The name honors two women born in 1928 and nods to the airport's 2028 centennial.",
        "airport_ident": "KGMU",
        "airport_name": "Greenville Downtown Airport",
        "city": "Greenville",
        "state": "SC",
        "iso_region": "US-SC",
        "slug": "hangar-28-kitchen-events-kgmu",
        "airnav_url": "https://www.airnav.com/airport/KGMU",
        "status": "",
        "status_date": "",
        "status_note": ""
      },
      "geometry": {
        "type": "Point",
        "coordinates": [
          -82.350217,
          34.847903
        ]
      }
    },
    {
      "type": "Feature",
      "properties": {
        "restaurant_name": "Tantrums Flightside Cafe",
        "type": "on-airport",
        "region": "FL",
        "source": "2026 freshness pass",
        "website": "https://tantrumscafe.com",
        "substack_post": "",
        "notes": "A family-run operation inside the Bartow terminal building with ramp and runway views, serving Old Florida comfort food. Breakfast runs to the Pilot's Breakfast, chicken and waffles, and shrimp and grits; lunch to the Signature Smash Burger, a Cuban, Shrimp & Grit Cakes and gator bites. Burger Monday, Taco Tuesday and a Friday fish fry rotate through the week, and there is key lime pie waiting at the end of it. Mon–Sat 7AM–2PM · Closed Sun.",
        "airport_ident": "KBOW",
        "airport_name": "Bartow Executive Airport",
        "city": "Bartow",
        "state": "FL",
        "iso_region": "US-FL",
        "slug": "tantrums-flightside-cafe-kbow",
        "airnav_url": "https://www.airnav.com/airport/KBOW",
        "status": "",
        "status_date": "",
        "status_note": ""
      },
      "geometry": {
        "type": "Point",
        "coordinates": [
          -81.783401,
          27.943399
        ]
      }
    },
    {
      "type": "Feature",
      "properties": {
        "restaurant_name": "Elevation 89",
        "type": "on-airport",
        "region": "FL",
        "source": "2026 freshness pass",
        "website": "https://www.elevation89attheocalaairport.com",
        "substack_post": "",
        "notes": "The most polished restaurant on this map that still lets you park on the ramp and walk in. Opened 2021 in the center of the Sheltair terminal: floor-to-ceiling windows onto the runway, a bar built from an aircraft wing and equestrian touches for Marion County horse country. Crab cakes, porcini-dusted scallops, lobster spring rolls, and a serious burger list including the Flying Goat with goat cheese and fig jam. Sun–Thu 11AM–9PM · Fri–Sat 11AM–10PM. Reservations on OpenTable; sunset over the runway is the draw.",
        "airport_ident": "KOCF",
        "airport_name": "Ocala Intl (Jim Taylor Field)",
        "city": "Ocala",
        "state": "FL",
        "iso_region": "US-FL",
        "slug": "elevation-89-kocf",
        "airnav_url": "https://www.airnav.com/airport/KOCF",
        "status": "",
        "status_date": "",
        "status_note": ""
      },
      "geometry": {
        "type": "Point",
        "coordinates": [
          -82.22419739,
          29.17259979
        ]
      }
    },
    {
      "type": "Feature",
      "properties": {
        "restaurant_name": "Starduster Cafe",
        "type": "on-airport",
        "region": "PNW",
        "source": "2026 freshness pass",
        "website": "",
        "substack_post": "",
        "notes": "About as short a walk as fly-in dining gets — the cafe sits on the east side of the runway, roughly 200 feet from the transient tie-downs. A straightforward family-run diner: eggs, hash browns, corned beef hash, biscuits and gravy, country fried steak, and window seats looking straight out at the pattern. Independence charges no landing or tie-down fees. Plan it as a morning flight — the kitchen closes at 2PM every day. Mon–Sat 6AM–2PM · Sun 7AM–2PM. Pattern note: gliders and ultralights fly RIGHT traffic for 16/34 while everyone else flies left — two patterns on opposite sides of the same runway at once. Expect ultralights on and around the field and waterfowl in season. CTAF 122.975.",
        "airport_ident": "7S5",
        "airport_name": "Independence State Airport",
        "city": "Independence",
        "state": "OR",
        "iso_region": "US-OR",
        "slug": "starduster-cafe-7s5",
        "airnav_url": "https://www.airnav.com/airport/7S5",
        "status": "",
        "status_date": "",
        "status_note": ""
      },
      "geometry": {
        "type": "Point",
        "coordinates": [
          -123.197998046875,
          44.867000579833984
        ]
      }
    },
    {
      "type": "Feature",
      "properties": {
        "restaurant_name": "Buzz Inn Steakhouse",
        "type": "on-airport",
        "region": "PNW",
        "source": "2026 freshness pass",
        "website": "https://buzzinnsteakhouse.com",
        "substack_post": "",
        "notes": "One of the few fly-in options in Puget Sound that will still feed you at eight in the evening — open seven days from 7AM for breakfast through dinner, which is unusual for an on-field restaurant. Hand-cut Angus steaks aged at least 28 days are the house specialty, with all-day breakfast, a full bar, and indoor and outdoor seating. Sun–Thu 7AM–9PM · Fri–Sat 7AM–10PM. Pattern note: Harvey is an active jump field and the parachute landing area is the gravel circle between the paved runway and the main taxiway — which is why 15L is RIGHT traffic and the field asks that all patterns stay west. A standard left pattern to 15L puts you over the jumpers. Second student drop zone 1nm east marked with a white X, helicopter training west of the runways at and below 500ft, no touch-and-goes. CTAF 123.0. The runway is 2,672 x 36 ft with a 452 ft displaced threshold on 15L — worth the numbers before a night arrival. The restaurant's lease runs through at least September 2027.",
        "airport_ident": "S43",
        "airport_name": "Harvey Field",
        "city": "Snohomish",
        "state": "WA",
        "iso_region": "US-WA",
        "slug": "buzz-inn-steakhouse-s43",
        "airnav_url": "https://www.airnav.com/airport/S43",
        "status": "",
        "status_date": "",
        "status_note": ""
      },
      "geometry": {
        "type": "Point",
        "coordinates": [
          -122.105003,
          47.908199
        ]
      }
    },
    {
      "type": "Feature",
      "properties": {
        "restaurant_name": "The Airplane Restaurant",
        "type": "near-airport",
        "region": "Mountain",
        "source": "2026 freshness pass",
        "website": "https://theairplanerestaurant.com",
        "substack_post": "",
        "notes": "You eat inside a 1953 Boeing KC-97 tanker — 42 of the roughly 275 seats are in the airframe itself, and the cockpit is open to walk through. Diner-plus American: the Reuben von Crashed, the BBQ Bomber Burger, Runway Chicken Wings, Angus steaks. It is outside the airport fence, but the walk is genuinely easy: out the landside door at Cutter Aviation or jetCenters of Colorado and southwest to Newport Road, about half a mile and ten minutes on foot, no ramp crossing and no badging. Sun–Thu 11AM–8PM · Fri–Sat 11AM–9PM. Two flight-planning notes: the field sits at 6,187 ft and summer afternoon density altitude runs into five figures, and both FBOs are jet houses — ask about a ramp fee before you go. KCOS is Class C.",
        "airport_ident": "KCOS",
        "airport_name": "City of Colorado Springs Municipal Airport",
        "city": "Colorado Springs",
        "state": "CO",
        "iso_region": "US-CO",
        "slug": "the-airplane-restaurant-kcos",
        "airnav_url": "https://www.airnav.com/airport/KCOS",
        "status": "",
        "status_date": "",
        "status_note": ""
      },
      "geometry": {
        "type": "Point",
        "coordinates": [
          -104.700996,
          38.805801
        ]
      }
    },
    {
      "type": "Feature",
      "properties": {
        "restaurant_name": "Top Gun Bar and Grill",
        "type": "on-airport",
        "region": "PNW",
        "source": "2026 candidate research",
        "website": "https://www.topgunbgllc.com",
        "substack_post": "",
        "notes": "A working pilots' bar and grill right on the ramp at Thun Field, midfield on the west side with a straight view of the pattern. Burgers, club sandwiches, fish and chips, nachos and pizza, plus omelettes and skillets on the weekend breakfast menu. Free pool and cornhole on the back patio. Open seven days: Mon to Wed 11AM to midnight, Thu and Fri 11AM to 2AM, Sat 8AM to 2AM, Sun 8AM to midnight. (253) 848-0555. IMPORTANT: this venue is 21 and over only, no children. Field notes: runway 17/35 is 3,651 by 60 ft, narrower than most pilots are used to, with PAPI both ends on a steep 4.0 degree glidepath. Non-towered, CTAF 122.7, self-serve 100LL 24 hours. Noise sensitive in all quadrants, so fly the abatement procedures. Ultralights prohibited.",
        "airport_ident": "KPLU",
        "airport_name": "Pierce County Airport (Thun Field)",
        "city": "Puyallup",
        "state": "WA",
        "iso_region": "US-WA",
        "slug": "top-gun-bar-and-grill-kplu",
        "airnav_url": "https://www.airnav.com/airport/KPLU",
        "status": "",
        "status_date": "",
        "status_note": ""
      },
      "geometry": {
        "type": "Point",
        "coordinates": [
          -122.287003,
          47.103901
        ]
      }
    },
    {
      "type": "Feature",
      "properties": {
        "restaurant_name": "Twin Peak's Drive-In",
        "type": "near-airport",
        "region": "PNW",
        "source": "2026 candidate research",
        "website": "https://twinpeaksdrivein.toast.site",
        "substack_post": "",
        "notes": "A classic roadside drive-in a quarter mile west of the field, sitting almost on the extended runway centerline. Handcrafted burgers with house-made sauces, four kinds of fries, and old-fashioned malted milkshakes. Pair it with the WAAAM antique aircraft and automobile museum on the field and Hood River becomes a day trip rather than a lunch stop. Open 10:30AM to 8:30PM. (541) 386-4460. Field notes: runway 7/25 is 3,040 by 75 ft asphalt, CTAF 122.8, 100LL available. Brief the Gorge before you go. The chart warns that crosswinds here produce extreme low level turbulence and unexpected wind currents, and it is the most important operational fact about this field. Glider operations are conducted here, and there is a grass median runway north of the pavement that cannot be used at the same time as the paved surface. Noise sensitive.",
        "airport_ident": "4S2",
        "airport_name": "Ken Jernstedt Airfield",
        "city": "Hood River",
        "state": "OR",
        "iso_region": "US-OR",
        "slug": "twin-peaks-drive-in-4s2",
        "airnav_url": "https://www.airnav.com/airport/4S2",
        "status": "",
        "status_date": "",
        "status_note": ""
      },
      "geometry": {
        "type": "Point",
        "coordinates": [
          -121.5360031,
          45.67259979
        ]
      }
    },
    {
      "type": "Feature",
      "properties": {
        "restaurant_name": "Cavanaugh's",
        "type": "near-airport",
        "region": "PNW",
        "source": "2026 candidate research",
        "website": "https://www.cavsresort.com",
        "substack_post": "",
        "notes": "Lakefront dining on Priest Lake about a tenth of a mile north of the parking apron, which is a two minute walk from the turf. The operator says plainly to fly in and join them. The menu leans regional: Priest Lake Pasta, fish tacos, steak salad, Selkirk nachos, and a huckleberry ice cream sandwich. Dining is first come first served with no reservations, though groups of ten or more are appreciated in advance. Summer hours Sun to Thu noon to 8PM, Fri and Sat noon to 9PM. No takeout on Friday or Saturday June through September. (208) 215-7088. Field notes: runway 15/33 is 3,100 by 120 ft turf, state owned by Idaho Transportation Department Aeronautics, elevation 2,484 ft. No fuel and no repairs, tiedowns only. There is no line of sight between the runway ends. Watch for irrigation sprinklers on the runway, and note the edges and thresholds are marked with white rocks. Seaplane operations in the adjacent bay, CTAF 122.9. Seasonal field with no winter maintenance.",
        "airport_ident": "66S",
        "airport_name": "Cavanaugh Bay Airport",
        "city": "Coolin",
        "state": "ID",
        "iso_region": "US-ID",
        "slug": "cavanaughs-66s",
        "airnav_url": "https://www.airnav.com/airport/66S",
        "status": "",
        "status_date": "",
        "status_note": ""
      },
      "geometry": {
        "type": "Point",
        "coordinates": [
          -116.822047,
          48.518168
        ]
      }
    },
    {
      "type": "Feature",
      "properties": {
        "restaurant_name": "Hangar Cafe",
        "type": "on-airport",
        "region": "Mountain",
        "source": "2026 candidate research",
        "website": "",
        "substack_post": "",
        "notes": "On the field at 303 Airport Rd, in a remodeled hangar looking straight at landing traffic. Owner operated for fifteen years by Ashley Hale, whose father converted the hangar into a cafe in 2005. Breakfast and lunch with aviation names on the menu including the Glider Omelet and the Spruce Goose Burger, and it was recently voted best breakfast in the Bitterroot. Fire season helicopter crews eat here, which tells you something about both the food and the turnaround. Wed to Fri 9AM to 2PM, Sat 8AM to 12:30PM, Sun 8AM to 1:30PM, closed Mon and Tue. (406) 363-4478. Field notes: the identifier changed from 6S5 to HRF in October 2021, so older guides and databases are wrong. Runway 17/35 is 5,200 by 75 ft asphalt with PAPI both ends, elevation 3,636 ft, 100LL and Jet-A on field. Parachute jump activity and ultralight activity are both noted here, so brief them.",
        "airport_ident": "HRF",
        "airport_name": "Ravalli County Airport",
        "city": "Hamilton",
        "state": "MT",
        "iso_region": "US-MT",
        "slug": "hangar-cafe-hrf",
        "airnav_url": "https://www.airnav.com/airport/HRF",
        "status": "",
        "status_date": "",
        "status_note": ""
      },
      "geometry": {
        "type": "Point",
        "coordinates": [
          -114.125569,
          46.251499
        ]
      }
    },
    {
      "type": "Feature",
      "properties": {
        "restaurant_name": "Big Creek Lodge",
        "type": "on-airport",
        "region": "Mountain",
        "source": "2026 candidate research",
        "website": "https://www.bigcreeklodgeidaho.com",
        "substack_post": "",
        "notes": "The flagship backcountry meal in Idaho. The rebuilt lodge sits at the edge of the strip in the Frank Church River of No Return wilderness, running a short seasonal menu the lodge describes as healthy filling cuisine to fit backcountry tastes. Breakfast 7:30AM to 1PM at $35, lunch noon to 1PM at $35, dinner one seating at 6PM at $45. Breakfast needs no reservation and is the only walk-up meal. Dinner requires 48 hours notice and confirmation, and the lodge cannot take walk-in dinner guests because there is no phone on site and no grocery store within three hours. Closed Wednesdays during the 2026 season. (208) 949-1828. READ THIS FIRST: Idaho Division of Aeronautics states do not attempt operations at Big Creek without a solid fundamental background in mountain flying, and strongly recommends an airport checkout. Runway 01/19 is 3,550 by 110 ft turf at 5,743 ft elevation. Land runway 19 and depart runway 01. Straight-ins are strongly discouraged, and departing 19 southbound is strongly discouraged because of rising terrain and a history of high density altitude accidents. The first 400 ft of runway 01 is rough and undulating. Expect strong downdrafts on final, big game on and around the runway, trees 30 to 60 ft along the edges and ends, rodent holes and soft wet sections. No fuel, unattended, no winter maintenance.",
        "airport_ident": "U60",
        "airport_name": "Big Creek Airport",
        "city": "Big Creek",
        "state": "ID",
        "iso_region": "US-ID",
        "slug": "big-creek-lodge-u60",
        "airnav_url": "https://www.airnav.com/airport/U60",
        "status": "",
        "status_date": "",
        "status_note": ""
      },
      "geometry": {
        "type": "Point",
        "coordinates": [
          -115.321999,
          45.133202
        ]
      }
    }
  ]
}